start=new Date('2021-11-23T00:00:00.000Z').valueOf();
sats=[{"NORAD_CAT_ID":"45367","CLASSIFICATION_TYPE":"U","ELEMENT_SET_NO":"999","PERIAPSIS":"546.324","MEAN_ELEMENT_THEORY":"SGP4","SITE":"AFETR","RA_OF_ASC_NODE":"6.3330","SEMIMAJOR_AXIS":"6925.355","RCS_SIZE":"LARGE","OBJECT_NAME":"STARLINK-1273","ARG_OF_PERICENTER":"60.1647","TLE_LINE1":"1 45367U 20019H   21326.53866418  .00001832  00000-0  14184-3 0  9997","REV_AT_EPOCH":"9337","PERIOD":"95.592","FILE":"3221593","OBJECT_TYPE":"PAYLOAD","OBJECT_ID":"2020-019H","COUNTRY_CODE":"US","EPHEMERIS_TYPE":"0","CENTER_NAME":"EARTH","TIME_SYSTEM":"UTC","ECCENTRICITY":"0.00012940","GP_ID":"190272774","MEAN_MOTION_DOT":"0.00001832","MEAN_ANOMALY":"299.9470","REF_FRAME":"TEME","DECAY_DATE":null,"LAUNCH_DATE":"2020-03-18","BSTAR":"0.00014184000000","TLE_LINE2":"2 45367  53.0565   6.3330 0001294  60.1647 299.9470 15.06398000 93370","INCLINATION":"53.0565","EPOCH":"2021-11-22T12:55:40.585152","MEAN_MOTION":"15.06398000","APOAPSIS":"548.116","MEAN_MOTION_DDOT":"0.0000000000000"},{"ECCENTRICITY":"0.00021080","MEAN_ANOMALY":"312.6489","REF_FRAME":"TEME","GP_ID":"190261600","MEAN_MOTION_DOT":"0.00000166","COUNTRY_CODE":"US","EPHEMERIS_TYPE":"0","OBJECT_ID":"2020-019J","TIME_SYSTEM":"UTC","CENTER_NAME":"EARTH","EPOCH":"2021-11-22T12:13:12.467712","INCLINATION":"53.0550","APOAPSIS":"548.682","MEAN_MOTION_DDOT":"0.0000000000000","MEAN_MOTION":"15.06397073","TLE_LINE2":"2 45368  53.0550   6.4555 0002108  47.4678 312.6489 15.06397073 93374","DECAY_DATE":null,"LAUNCH_DATE":"2020-03-18","BSTAR":"0.00003007900000","SEMIMAJOR_AXIS":"6925.358","RA_OF_ASC_NODE":"6.4555","CLASSIFICATION_TYPE":"U","NORAD_CAT_ID":"45368","SITE":"AFETR","PERIAPSIS":"545.763","ELEMENT_SET_NO":"999","MEAN_ELEMENT_THEORY":"SGP4","PERIOD":"95.592","REV_AT_EPOCH":"9337","TLE_LINE1":"1 45368U 20019J   21326.50917208  .00000166  00000-0  30079-4 0  9990","OBJECT_TYPE":"PAYLOAD","FILE":"3221278","OBJECT_NAME":"STARLINK-1276","ARG_OF_PERICENTER":"47.4678","RCS_SIZE":"LARGE"},{"TLE_LINE2":"2 45369  53.0558   4.9764 0001281  75.2900 284.8231 15.06395134 93423","LAUNCH_DATE":"2020-03-18","BSTAR":"-0.00006242100000","DECAY_DATE":null,"MEAN_MOTION_DDOT":"0.0000000000000","APOAPSIS":"548.116","MEAN_MOTION":"15.06395134","EPOCH":"2021-11-22T20:09:32.759136","INCLINATION":"53.0558","TIME_SYSTEM":"UTC","CENTER_NAME":"EARTH","EPHEMERIS_TYPE":"0","COUNTRY_CODE":"US","OBJECT_ID":"2020-019K","REF_FRAME":"TEME","MEAN_ANOMALY":"284.8231","MEAN_MOTION_DOT":"-0.00001211","GP_ID":"190273292","ECCENTRICITY":"0.00012810","ARG_OF_PERICENTER":"75.2900","OBJECT_NAME":"STARLINK-1277","RCS_SIZE":"LARGE","OBJECT_TYPE":"PAYLOAD","FILE":"3221612","PERIOD":"95.592","TLE_LINE1":"1 45369U 20019K   21326.83996249 -.00001211  00000-0 -62421-4 0  9999","REV_AT_EPOCH":"9342","SITE":"AFETR","MEAN_ELEMENT_THEORY":"SGP4","ELEMENT_SET_NO":"999","PERIAPSIS":"546.341","CLASSIFICATION_TYPE":"U","NORAD_CAT_ID":"45369","SEMIMAJOR_AXIS":"6925.363","RA_OF_ASC_NODE":"4.9764"},{"TLE_LINE1":"1 45370U 20019L   21326.29906834  .00001669  00000-0  13091-3 0  9995","REV_AT_EPOCH":"9331","PERIOD":"95.592","FILE":"3221612","OBJECT_TYPE":"PAYLOAD","RCS_SIZE":"LARGE","ARG_OF_PERICENTER":"71.8907","OBJECT_NAME":"STARLINK-1281","SEMIMAJOR_AXIS":"6925.334","RA_OF_ASC_NODE":"7.3912","NORAD_CAT_ID":"45370","CLASSIFICATION_TYPE":"U","ELEMENT_SET_NO":"999","PERIAPSIS":"546.254","MEAN_ELEMENT_THEORY":"SGP4","SITE":"AFETR","INCLINATION":"53.0555","EPOCH":"2021-11-22T07:10:39.504576","MEAN_MOTION":"15.06404601","APOAPSIS":"548.145","MEAN_MOTION_DDOT":"0.0000000000000","DECAY_DATE":null,"BSTAR":"0.00013091000000","LAUNCH_DATE":"2020-03-18","TLE_LINE2":"2 45370  53.0555   7.3912 0001365  71.8907 288.2230 15.06404601 93311","ECCENTRICITY":"0.00013650","GP_ID":"190272791","MEAN_MOTION_DOT":"0.00001669","REF_FRAME":"TEME","MEAN_ANOMALY":"288.2230","OBJECT_ID":"2020-019L","COUNTRY_CODE":"US","EPHEMERIS_TYPE":"0","CENTER_NAME":"EARTH","TIME_SYSTEM":"UTC"},{"SEMIMAJOR_AXIS":"6925.336","RA_OF_ASC_NODE":"6.0727","NORAD_CAT_ID":"45371","CLASSIFICATION_TYPE":"U","MEAN_ELEMENT_THEORY":"SGP4","ELEMENT_SET_NO":"999","PERIAPSIS":"546.162","SITE":"AFETR","TLE_LINE1":"1 45371U 20019M   21326.59395125  .00001550  00000-0  12293-3 0  9996","REV_AT_EPOCH":"9338","PERIOD":"95.592","FILE":"3221594","OBJECT_TYPE":"PAYLOAD","RCS_SIZE":"LARGE","ARG_OF_PERICENTER":"58.0062","OBJECT_NAME":"STARLINK-1287","ECCENTRICITY":"0.00015010","GP_ID":"190272802","MEAN_MOTION_DOT":"0.00001550","REF_FRAME":"TEME","MEAN_ANOMALY":"302.1073","OBJECT_ID":"2020-019M","EPHEMERIS_TYPE":"0","COUNTRY_CODE":"US","CENTER_NAME":"EARTH","TIME_SYSTEM":"UTC","INCLINATION":"53.0545","EPOCH":"2021-11-22T14:15:17.388000","MEAN_MOTION":"15.06403952","MEAN_MOTION_DDOT":"0.0000000000000","APOAPSIS":"548.241","LAUNCH_DATE":"2020-03-18","BSTAR":"0.00012293000000","DECAY_DATE":null,"TLE_LINE2":"2 45371  53.0545   6.0727 0001501  58.0062 302.1073 15.06403952 93388"},{"TLE_LINE2":"2 45372  53.0562   6.3143 0001311  67.7372 292.3756 15.06402903 93375","BSTAR":"0.00011347000000","LAUNCH_DATE":"2020-03-18","DECAY_DATE":null,"MEAN_MOTION_DDOT":"0.0000000000000","APOAPSIS":"548.113","MEAN_MOTION":"15.06402903","EPOCH":"2021-11-22T13:00:58.396320","INCLINATION":"53.0562","TIME_SYSTEM":"UTC","CENTER_NAME":"EARTH","EPHEMERIS_TYPE":"0","COUNTRY_CODE":"US","OBJECT_ID":"2020-019N","MEAN_ANOMALY":"292.3756","REF_FRAME":"TEME","MEAN_MOTION_DOT":"0.00001409","GP_ID":"190272799","ECCENTRICITY":"0.00013110","OBJECT_NAME":"STARLINK-1288","ARG_OF_PERICENTER":"67.7372","RCS_SIZE":"LARGE","OBJECT_TYPE":"PAYLOAD","FILE":"3221594","PERIOD":"95.592","REV_AT_EPOCH":"9337","TLE_LINE1":"1 45372U 20019N   21326.54234255  .00001409  00000-0  11347-3 0  9990","SITE":"AFETR","MEAN_ELEMENT_THEORY":"SGP4","ELEMENT_SET_NO":"999","PERIAPSIS":"546.297","CLASSIFICATION_TYPE":"U","NORAD_CAT_ID":"45372","SEMIMAJOR_AXIS":"6925.340","RA_OF_ASC_NODE":"6.3143"},{"CENTER_NAME":"EARTH","TIME_SYSTEM":"UTC","OBJECT_ID":"2020-019P","EPHEMERIS_TYPE":"0","COUNTRY_CODE":"US","GP_ID":"190271969","MEAN_MOTION_DOT":"0.00001428","REF_FRAME":"TEME","MEAN_ANOMALY":"335.7241","ECCENTRICITY":"0.00015800","BSTAR":"0.00011470000000","LAUNCH_DATE":"2020-03-18","DECAY_DATE":null,"TLE_LINE2":"2 45373  53.0554   6.3935 0001580  24.3823 335.7241 15.06408418 93372","MEAN_MOTION":"15.06408418","MEAN_MOTION_DDOT":"0.0000000000000","APOAPSIS":"548.282","INCLINATION":"53.0554","EPOCH":"2021-11-22T12:34:26.280192","MEAN_ELEMENT_THEORY":"SGP4","ELEMENT_SET_NO":"999","PERIAPSIS":"546.094","SITE":"AFETR","NORAD_CAT_ID":"45373","CLASSIFICATION_TYPE":"U","SEMIMAJOR_AXIS":"6925.323","RA_OF_ASC_NODE":"6.3935","RCS_SIZE":"LARGE","OBJECT_NAME":"STARLINK-1295","ARG_OF_PERICENTER":"24.3823","FILE":"3221539","OBJECT_TYPE":"PAYLOAD","REV_AT_EPOCH":"9337","TLE_LINE1":"1 45373U 20019P   21326.52391528  .00001428  00000-0  11470-3 0  9994","PERIOD":"95.592"},{"SITE":"AFETR","MEAN_ELEMENT_THEORY":"SGP4","PERIAPSIS":"546.167","ELEMENT_SET_NO":"999","CLASSIFICATION_TYPE":"U","NORAD_CAT_ID":"45374","SEMIMAJOR_AXIS":"6925.354","RA_OF_ASC_NODE":"6.4109","ARG_OF_PERICENTER":"59.5482","OBJECT_NAME":"STARLINK-1300","RCS_SIZE":"LARGE","OBJECT_TYPE":"PAYLOAD","FILE":"3221278","PERIOD":"95.592","TLE_LINE1":"1 45374U 20019Q   21326.52023109  .00000033  00000-0  21085-4 0  9997","REV_AT_EPOCH":"9337","TIME_SYSTEM":"UTC","CENTER_NAME":"EARTH","EPHEMERIS_TYPE":"0","COUNTRY_CODE":"US","OBJECT_ID":"2020-019Q","REF_FRAME":"TEME","MEAN_ANOMALY":"300.5656","GP_ID":"190263103","MEAN_MOTION_DOT":"0.00000033","ECCENTRICITY":"0.00015200","TLE_LINE2":"2 45374  53.0553   6.4109 0001520  59.5482 300.5656 15.06398141 93372","LAUNCH_DATE":"2020-03-18","BSTAR":"0.00002108500000","DECAY_DATE":null,"MEAN_MOTION_DDOT":"0.0000000000000","APOAPSIS":"548.272","MEAN_MOTION":"15.06398141","EPOCH":"2021-11-22T12:29:07.966176","INCLINATION":"53.0553"},{"OBJECT_NAME":"STARLINK-1302","ARG_OF_PERICENTER":"71.9026","RCS_SIZE":"LARGE","OBJECT_TYPE":"PAYLOAD","FILE":"3221278","PERIOD":"95.592","REV_AT_EPOCH":"9331","TLE_LINE1":"1 45375U 20019R   21326.13688504  .00001711  00000-0  13368-3 0  9999","SITE":"AFETR","ELEMENT_SET_NO":"999","PERIAPSIS":"546.107","MEAN_ELEMENT_THEORY":"SGP4","CLASSIFICATION_TYPE":"U","NORAD_CAT_ID":"45375","SEMIMAJOR_AXIS":"6925.325","RA_OF_ASC_NODE":"8.1350","TLE_LINE2":"2 45375  53.0565   8.1350 0001563  71.9026 288.2133 15.06407781 93319","DECAY_DATE":null,"BSTAR":"0.00013368000000","LAUNCH_DATE":"2020-03-18","APOAPSIS":"548.272","MEAN_MOTION_DDOT":"0.0000000000000","MEAN_MOTION":"15.06407781","EPOCH":"2021-11-22T03:17:06.867456","INCLINATION":"53.0565","TIME_SYSTEM":"UTC","CENTER_NAME":"EARTH","COUNTRY_CODE":"US","EPHEMERIS_TYPE":"0","OBJECT_ID":"2020-019R","MEAN_ANOMALY":"288.2133","REF_FRAME":"TEME","GP_ID":"190263346","MEAN_MOTION_DOT":"0.00001711","ECCENTRICITY":"0.00015630"},{"ECCENTRICITY":"0.00015000","MEAN_ANOMALY":"288.1579","REF_FRAME":"TEME","MEAN_MOTION_DOT":"-0.00000442","GP_ID":"190230765","COUNTRY_CODE":"US","EPHEMERIS_TYPE":"0","OBJECT_ID":"2020-019S","TIME_SYSTEM":"UTC","CENTER_NAME":"EARTH","EPOCH":"2021-11-21T19:45:58.346208","INCLINATION":"53.0564","APOAPSIS":"548.291","MEAN_MOTION_DDOT":"0.0000000000000","MEAN_MOTION":"15.06387515","TLE_LINE2":"2 45376  53.0564   9.5394 0001500  71.9573 288.1579 15.06387515 93269","DECAY_DATE":null,"LAUNCH_DATE":"2020-03-18","BSTAR":"-0.00001078800000","SEMIMAJOR_AXIS":"6925.387","RA_OF_ASC_NODE":"9.5394","CLASSIFICATION_TYPE":"U","NORAD_CAT_ID":"45376","SITE":"AFETR","ELEMENT_SET_NO":"999","PERIAPSIS":"546.213","MEAN_ELEMENT_THEORY":"SGP4","PERIOD":"95.593","TLE_LINE1":"1 45376U 20019S   21325.82359197 -.00000442  00000-0 -10788-4 0  9994","REV_AT_EPOCH":"9326","OBJECT_TYPE":"PAYLOAD","FILE":"3220934","OBJECT_NAME":"STARLINK-1304","ARG_OF_PERICENTER":"71.9573","RCS_SIZE":"LARGE"}];
